{
"carList":[
  {
    "brand": "Mercedes",
    "model": "190E",
    "motorType":"1997 cm3",
    "maxSpeed":"195 Km/h / 121 Mph",
    "zeroToHundredSpeed":"10.5 s",
    "gearType":"Manuel",
    "wheelSize":"185/55 R15",
    "bodyType":"Sedan",
    "energyType":"LPG/Gasoline",
    "bodyWeight":1500,
    "productionYears":"1985-1993",
    "euroNcapPoint": 4,
    "pullType":"Rear Thrust"
  },
  {
    "brand": "Mercedes",
    "model": "Amg gt",
    "motorType":"V8",
    "maxSpeed":"320 Km/h / 199 Mph",
    "zeroToHundredSpeed":"3.7 s",
    "gearType":"Automatic",
    "wheelSize":"295/30 R20",
    "bodyType":"Coupe",
    "energyType":"Diesel",
    "bodyWeight":1695,
    "productionYears":"2015 - Production continues",
    "euroNcapPoint": 4,
    "pullType":"Rear Thrust"
  },
  {
    "brand": "Citroen",
    "model": "C5 Aircross",
    "motorType":"1499 cm3",
    "maxSpeed":"188 Km/h / 117 Mph",
    "zeroToHundredSpeed":"10.4 s",
    "gearType":"Automatic",
    "wheelSize":"195/65/18",
    "bodyType":"SUV",
    "energyType":"Diesel",
    "bodyWeight":1405,
    "productionYears":"2019 - Production continues",
    "euroNcapPoint": 5,
    "pullType":"Front Wheel Drive"
  },
  {
    "brand": "Peugeot",
    "model": "307",
    "motorType":"1560 cm3",
    "maxSpeed":"188 Km/h / 117 Mph",
    "zeroToHundredSpeed":"11.2 s",
    "gearType":"Manuel",
    "wheelSize":"205/55 R16",
    "bodyType":"Hatchback",
    "energyType":"Diesel",
    "bodyWeight":1336,
    "productionYears":"2001 - 2008",
    "euroNcapPoint": 4,
    "pullType":"Front Wheel Drive"
  },
  {
    "brand": "Peugeot",
    "model": "406",
    "motorType":"1580 cm3",
    "maxSpeed":"175 Km/h / 109 Mph",
    "zeroToHundredSpeed":"15.3 s",
    "gearType":"Manuel",
    "wheelSize":"185/70 R14",
    "bodyType":"Sedan",
    "energyType":"LPG/Gasoline",
    "bodyWeight":1215,
    "productionYears":"1997 - 2005",
    "euroNcapPoint": 3,
    "pullType":"Front Wheel Drive"
  },
  {
    "brand": "Audi",
    "model": "E-Tron GT",
    "motorType":"476 PS / 470 HP / 350 kW",
    "maxSpeed":"245 Km/h / 152 Mph",
    "zeroToHundredSpeed":"4.1 s",
    "gearType":"Automatic",
    "wheelSize":"275/45 R19",
    "bodyType":"Sedan",
    "energyType":"Electric",
    "bodyWeight":2251,
    "productionYears":"2021 - Production continues",
    "euroNcapPoint": 5,
    "pullType":"4WD"
  }
]}